NORAD_CAT_ID,OBJECT_NAME,OBJECT_TYPE,EPOCH,MEAN_MOTION,ECCENTRICITY,INCLINATION,RA_OF_ASC_NODE,ARG_OF_PERICENTER,MEAN_ANOMALY,BSTAR,MEAN_MOTION_DOT,MEAN_MOTION_DDOT,TLE_LINE0,TLE_LINE1,TLE_LINE2,SEMIMAJOR_AXIS,PERIOD,APOGEE,PERIGEE,DECAYED
55419.0,STARLINK-5629,PAYLOAD,2024-04-18 04:33:52,14.98340371,0.0003151,70.0014,25.3872,275.6515,84.4285,7.9138e-05,8.52e-06,0.0,0 STARLINK-5629,1 55419U 23014AE  24109.19019229  .00000852  00000-0  79138-4 0  9990,2 55419  70.0014  25.3872 0003151 275.6515  84.4285 14.98340371 67190,6950.161,96.106,574.216,569.836,0.0
55419.0,STARLINK-5629,PAYLOAD,2024-04-18 22:11:21,14.98338918,0.0003195,70.0024,23.5372,274.9049,85.1745,-3.8941e-05,-5.58e-06,0.0,0 STARLINK-5629,1 55419U 23014AE  24109.92455333 -.00000558  00000-0 -38941-4 0  9993,2 55419  70.0024  23.5372 0003195 274.9049  85.1745 14.98338918 68248,6950.165,96.106,574.251,569.81,0.0
55419.0,STARLINK-5629,PAYLOAD,2024-04-19 04:35:52,14.9834792,0.0002569,70.0028,22.8654,253.2377,106.85,4.7059e-05,4.69e-06,0.0,0 STARLINK-5629,1 55419U 23014AE  24110.19158291  .00000469  00000-0  47059-4 0  9996,2 55419  70.0028  22.8654 0002569 253.2377 106.8500 14.98347920 67348,6950.137,96.106,573.788,570.217,0.0
55419.0,STARLINK-5629,PAYLOAD,2024-04-19 20:37:14,14.98318094,0.0002268,70.0046,21.1825,231.025,129.0707,0.00030798,3.583e-05,0.0,0 STARLINK-5629,1 55419U 23014AE  24110.85919390  .00003583  00000-0  30798-3 0  9995,2 55419  70.0046  21.1825 0002268 231.0250 129.0707 14.98318094 67447,6950.23,96.108,573.671,570.518,0.0
55419.0,STARLINK-5629,PAYLOAD,2024-04-19 22:13:22,14.98319805,0.0002217,70.0044,21.0144,230.9121,129.1841,0.00028499,3.308e-05,0.0,0 STARLINK-5629,1 55419U 23014AE  24110.92595420  .00003308  00000-0  28499-3 0  9997,2 55419  70.0044  21.0144 0002217 230.9121 129.1841 14.98319805 68393,6950.224,96.108,573.63,570.549,0.0
55419.0,STARLINK-5629,PAYLOAD,2024-04-20 04:37:53,14.98335817,0.0002895,70.002,20.341,245.8711,114.2146,0.00036331,4.245e-05,0.0,0 STARLINK-5629,1 55419U 23014AE  24111.19298139  .00004245  00000-0  36331-3 0  9999,2 55419  70.0020  20.3410 0002895 245.8711 114.2146 14.98335817 67491,6950.175,96.107,574.052,570.028,0.0
55419.0,STARLINK-5629,PAYLOAD,2024-04-20 20:39:17,14.98316498,0.000322,70.0017,18.6583,269.5306,90.5484,-0.00031947,-3.901e-05,0.0,0 STARLINK-5629,1 55419U 23014AE  24111.86061419 -.00003901  00000-0 -31947-3 0  9990,2 55419  70.0017  18.6583 0003220 269.5306  90.5484 14.98316498 67590,6950.235,96.108,574.338,569.862,0.0
55419.0,STARLINK-5629,PAYLOAD,2024-04-21 03:03:49,14.98318356,0.0002764,70.0023,17.9852,246.7041,113.3827,-0.00027468,-3.368e-05,0.0,0 STARLINK-5629,1 55419U 23014AE  24112.12765188 -.00003368  00000-0 -27468-3 0  9994,2 55419  70.0023  17.9852 0002764 246.7041 113.3827 14.98318356 68572,6950.229,96.108,574.015,570.173,0.0
55419.0,STARLINK-5629,PAYLOAD,2024-04-21 20:41:17,14.98328157,0.0002442,70.0025,16.132,255.2216,104.8672,-1.4228e-05,-2.63e-06,0.0,0 STARLINK-5629,1 55419U 23014AE  24112.86200235 -.00000263  00000-0 -14228-4 0  9994,2 55419  70.0025  16.1320 0002442 255.2216 104.8672 14.98328157 67748,6950.199,96.107,573.761,570.366,0.0
55419.0,STARLINK-5629,PAYLOAD,2024-04-21 22:17:24,14.98335414,0.0002377,70.0025,15.9639,247.23,112.8608,6.3315e-05,6.63e-06,0.0,0 STARLINK-5629,1 55419U 23014AE  24112.92875589  .00000663  00000-0  63315-4 0  9994,2 55419  70.0025  15.9639 0002377 247.2300 112.8608 14.98335414 68697,6950.176,96.107,573.693,570.389,0.0
55419.0,STARLINK-5629,PAYLOAD,2024-04-22 03:05:41,14.9843153,0.0002733,70.0024,15.4576,271.6695,88.4151,0.0011082,0.00013189,0.0,0 STARLINK-5629,1 55419U 23014AE  24113.12895273  .00013189  00000-0  11082-2 0  9998,2 55419  70.0024  15.4576 0002733 271.6695  88.4151 14.98431530 67781,6949.879,96.1,573.643,569.845,0.0
55419.0,STARLINK-5629,PAYLOAD,2024-04-22 20:43:19,14.98298844,0.0003163,70.0013,13.6073,275.9971,84.0828,7.0136e-05,7.43e-06,0.0,0 STARLINK-5629,1 55419U 23014AE  24113.86342246  .00000743  00000-0  70136-4 0  9995,2 55419  70.0013  13.6073 0003163 275.9971  84.0828 14.98298844 67897,6950.289,96.109,574.353,569.956,0.0
55419.0,STARLINK-5629,PAYLOAD,2024-04-22 22:19:27,14.98304225,0.0002871,70.0009,13.4382,272.0705,88.0126,4.8721e-05,4.88e-06,0.0,0 STARLINK-5629,1 55419U 23014AE  24113.93018089  .00000488  00000-0  48721-4 0  9999,2 55419  70.0009  13.4382 0002871 272.0705  88.0126 14.98304225 68843,6950.273,96.109,574.133,570.142,0.0
55419.0,STARLINK-5629,PAYLOAD,2024-04-23 03:07:51,14.98307649,0.0002766,70.0015,12.9344,260.7995,99.2852,0.00013387,1.504e-05,0.0,0 STARLINK-5629,1 55419U 23014AE  24114.13045867  .00001504  00000-0  13387-3 0  9995,2 55419  70.0015  12.9344 0002766 260.7995  99.2852 14.98307649 67932,6950.262,96.108,574.049,570.205,0.0
55419.0,STARLINK-5629,PAYLOAD,2024-04-23 20:45:19,14.983375,0.0002962,70.0004,11.0789,264.8661,95.216,1.5213e-05,8.9e-07,0.0,0 STARLINK-5629,1 55419U 23014AE  24114.86480425  .00000089  00000-0  15213-4 0  9996,2 55419  70.0004  11.0789 0002962 264.8661  95.2160 14.98337500 68046,6950.17,96.107,574.093,569.976,0.0
55419.0,STARLINK-5629,PAYLOAD,2024-04-23 22:21:26,14.98344409,0.0002808,70.0016,10.9149,250.734,109.3515,7.8878e-05,8.49e-06,0.0,0 STARLINK-5629,1 55419U 23014AE  24114.93155685  .00000849  00000-0  78878-4 0  9991,2 55419  70.0016  10.9149 0002808 250.7340 109.3515 14.98344409 68995,6950.148,96.106,573.965,570.062,0.0
55419.0,STARLINK-5629,PAYLOAD,2024-04-24 03:09:50,14.98351183,0.0002775,70.0016,10.4106,249.0029,111.0833,0.00012604,1.412e-05,0.0,0 STARLINK-5629,1 55419U 23014AE  24115.13182925  .00001412  00000-0  12604-3 0  9992,2 55419  70.0016  10.4106 0002775 249.0029 111.0833 14.98351183 68081,6950.127,96.106,573.921,570.064,0.0
55419.0,STARLINK-5629,PAYLOAD,2024-04-24 20:47:20,14.98324973,0.0003022,70.0011,8.559,257.0308,103.0514,9.0134e-05,9.82e-06,0.0,0 STARLINK-5629,1 55419U 23014AE  24115.86620676  .00000982  00000-0  90134-4 0  9998,2 55419  70.0011   8.5590 0003022 257.0308 103.0514 14.98324973 68192,6950.208,96.107,574.174,569.973,0.0
55419.0,STARLINK-5629,PAYLOAD,2024-04-24 22:23:28,14.98326777,0.0002921,70.0035,8.3948,220.9038,139.1902,0.0001614,1.833e-05,0.0,0 STARLINK-5629,1 55419U 23014AE  24115.93296354  .00001833  00000-0  16140-3 0  9998,2 55419  70.0035   8.3948 0002921 220.9038 139.1902 14.98326777 69140,6950.203,96.107,574.098,570.038,0.0
55419.0,STARLINK-5629,PAYLOAD,2024-04-25 03:11:52,14.98326007,0.0002675,70.0019,7.8856,256.7075,103.3786,0.00017878,2.041e-05,0.0,0 STARLINK-5629,1 55419U 23014AE  24116.13324441  .00002041  00000-0  17878-3 0  9991,2 55419  70.0019   7.8856 0002675 256.7075 103.3786 14.98326007 69170,6950.205,96.107,573.929,570.211,0.0
55419.0,STARLINK-5629,PAYLOAD,2024-04-25 20:49:20,14.98336358,0.0002586,70.0024,6.0354,247.8563,112.2322,-0.00010341,-1.327e-05,0.0,0 STARLINK-5629,1 55419U 23014AE  24116.86760392 -.00001327  00000-0 -10341-3 0  9996,2 55419  70.0024   6.0354 0002586 247.8563 112.2322 14.98336358 68347,6950.173,96.107,573.836,570.241,0.0
55419.0,STARLINK-5629,PAYLOAD,2024-04-25 22:25:29,14.98335984,0.0002734,70.0014,5.8644,256.1627,103.9228,-0.00010941,-1.398e-05,0.0,0 STARLINK-5629,1 55419U 23014AE  24116.93436371 -.00001398  00000-0 -10941-3 0  9995,2 55419  70.0014   5.8644 0002734 256.1627 103.9228 14.98335984 69295,6950.174,96.107,573.94,570.139,0.0
55419.0,STARLINK-5629,PAYLOAD,2024-04-26 09:38:24,14.98342936,0.0002875,70.0017,4.6848,271.1226,88.9604,-0.00013936,-1.756e-05,0.0,0 STARLINK-5629,1 55419U 23014AE  24117.40167630 -.00001756  00000-0 -13936-3 0  9992,2 55419  70.0017   4.6848 0002875 271.1226  88.9604 14.98342936 69362,6950.153,96.106,574.016,570.02,0.0
55419.0,STARLINK-5629,PAYLOAD,2024-04-26 22:27:29,14.98331034,0.000273,70.0015,3.341,260.8099,99.2751,3.7816e-05,3.58e-06,0.0,0 STARLINK-5629,1 55419U 23014AE  24117.93575997  .00000358  00000-0  37816-4 0  9998,2 55419  70.0015   3.3410 0002730 260.8099  99.2751 14.98331034 69448,6950.19,96.107,573.952,570.157,0.0
55419.0,STARLINK-5629,PAYLOAD,2024-04-27 09:40:26,14.98331212,0.0002768,70.0018,2.1617,268.8972,91.187,1.847e-05,1.27e-06,0.0,0 STARLINK-5629,1 55419U 23014AE  24118.40307934  .00000127  00000-0  18470-4 0  9994,2 55419  70.0018   2.1617 0002768 268.8972  91.1870 14.98331212 69515,6950.189,96.107,573.978,570.13,0.0
55419.0,STARLINK-5629,PAYLOAD,2024-04-27 20:53:23,14.9832089,0.000219,70.002,0.9813,265.8718,94.2191,3.0805e-05,2.75e-06,0.0,0 STARLINK-5629,1 55419U 23014AE  24118.87040760  .00000275  00000-0  30805-4 0  9996,2 55419  70.0020   0.9813 0002190 265.8718  94.2191 14.98320890 68649,6950.221,96.108,573.608,570.564,0.0
55419.0,STARLINK-5629,PAYLOAD,2024-04-27 22:29:31,14.98324838,0.0003114,69.9996,0.8134,270.9615,89.1187,-9.7182e-05,-1.252e-05,0.0,0 STARLINK-5629,1 55419U 23014AE  24118.93716755 -.00001252  00000-0 -97182-4 0  9996,2 55419  69.9996   0.8134 0003114 270.9615  89.1187 14.98324838 69592,6950.209,96.107,574.238,569.91,0.0
55419.0,STARLINK-5629,PAYLOAD,2024-04-28 09:42:27,14.98329011,0.000308,69.9998,359.6349,271.5015,88.5791,-2.988e-05,-4.5e-06,0.0,0 STARLINK-5629,1 55419U 23014AE  24119.40448394 -.00000450  00000-0 -29880-4 0  9999,2 55419  69.9998 359.6349 0003080 271.5015  88.5791 14.98329011 69660,6950.196,96.107,574.202,569.92,0.0
55419.0,STARLINK-5629,PAYLOAD,2024-04-28 20:55:23,14.98328595,0.0003051,69.9999,358.4566,271.141,88.9399,7.1137e-05,7.56e-06,0.0,0 STARLINK-5629,1 55419U 23014AE  24119.87180189  .00000756  00000-0  71137-4 0  9994,2 55419  69.9999 358.4566 0003051 271.1410  88.9399 14.98328595 68799,6950.197,96.107,574.183,569.942,0.0
55419.0,STARLINK-5629,PAYLOAD,2024-04-28 22:31:31,14.98334204,0.0003009,69.9998,358.2882,270.0503,90.0311,3.2554e-05,2.95e-06,0.0,0 STARLINK-5629,1 55419U 23014AE  24119.93855939  .00000295  00000-0  32554-4 0  9991,2 55419  69.9998 358.2882 0003009 270.0503  90.0311 14.98334204 69749,6950.18,96.107,574.136,569.954,0.0
